COSMOS 1933             
1 18958U 88020A   25345.49970285  .00006567  00000+0  32993-3 0  9994
2 18958  82.5137 338.1042 0005648 130.6065 229.5661 15.17092963 36850
SL-3 R/B                
1 19046U 88032B   25345.54379894  .00007727  00000+0  37204-3 0  9990
2 19046  97.5084 324.2725 0026617 177.0202 183.1196 15.18722679 38728
SL-16 R/B               
1 19120U 88039B   25345.19678458 -.00000004  00000+0  20669-4 0  9999
2 19120  71.0152 255.6607 0019736 118.9266 241.3842 14.19596691945824
COSMOS 1953             
1 19210U 88050A   25345.45924922  .00010155  00000+0  38191-3 0  9996
2 19210  82.5088 246.8663 0013800  75.4456 284.8312 15.26916908 24319
SL-8 R/B                
1 19257U 88053B   25345.58837725  .00000448  00000+0  15390-3 0  9998
2 19257  74.0479 274.8414 0019020 119.4142  53.3832 14.38858158963925
COSMOS 1975             
1 19573U 88093A   25345.33872453  .00012162  00000+0  46440-3 0  9999
2 19573  82.5202 206.2315 0012789 116.7855 243.4693 15.26439621  5921
SL-14 R/B               
1 19574U 88093B   25345.49634953  .00000924  00000+0  10380-3 0  9995
2 19574  82.5303 124.8340 0020054 333.7257  92.7992 14.85547417987943
SL-16 R/B               
1 19650U 88102B   25345.39890906 -.00000050  00000+0 -92365-6 0  9990
2 19650  70.9996 337.2644 0013023 154.2327 205.9448 14.16136273914397
INTERCOSMOS 24          
1 20261U 89080A   25345.47311041  .00001515  00000+0  43951-3 0  9992
2 20261  82.6043 161.7764 1188835 137.4573 232.5117 12.59436675655692
SL-14 R/B               
1 20262U 89080C   25345.38423376  .00000637  00000+0  18649-3 0  9998
2 20262  82.5930 229.8909 1230680  26.6852 339.2496 12.50412279649119
DELTA 1 R/B             
1 20323U 89089B   25345.46709883  .00000599  00000+0  15670-3 0  9992
2 20323  97.0752 201.9064 0070207  42.2593 318.3986 14.50570971882943
ARIANE 40 R/B           
1 20443U 90005H   25345.62731344  .00000509  00000+0  17574-3 0  9996
2 20443  98.3244  43.8365 0011245 108.8038 251.4371 14.39797503880136
