CCSDS_OMM_VERS = 2.0
CREATION_DATE  = 
ORIGINATOR     = 

OBJECT_NAME    = COSMOS 1933
OBJECT_ID      = 1988-020A
CENTER_NAME    = EARTH
REF_FRAME      = TEME
TIME_SYSTEM    = UTC
MEAN_ELEMENT_THEORY = SGP/SGP4

EPOCH          = 2025-12-11T11:59:34.326240
MEAN_MOTION    = 15.17092963
ECCENTRICITY   = .00056486
INCLINATION    = 82.5137
RA_OF_ASC_NODE = 338.1042
ARG_OF_PERICENTER = 130.6065
MEAN_ANOMALY   = 229.5661

EPHEMERIS_TYPE = 0
CLASSIFICATION_TYPE = U
NORAD_CAT_ID   = 18958
ELEMENT_SET_NO = 999
REV_AT_EPOCH   = 3685
BSTAR          = .32993044E-3
MEAN_MOTION_DOT = .6567E-4
MEAN_MOTION_DDOT = 0

CCSDS_OMM_VERS = 2.0
CREATION_DATE  = 
ORIGINATOR     = 

OBJECT_NAME    = SL-3 R/B
OBJECT_ID      = 1988-032B
CENTER_NAME    = EARTH
REF_FRAME      = TEME
TIME_SYSTEM    = UTC
MEAN_ELEMENT_THEORY = SGP/SGP4

EPOCH          = 2025-12-11T13:03:04.228416
MEAN_MOTION    = 15.18722679
ECCENTRICITY   = .00266173
INCLINATION    = 97.5084
RA_OF_ASC_NODE = 324.2725
ARG_OF_PERICENTER = 177.0202
MEAN_ANOMALY   = 183.1196

EPHEMERIS_TYPE = 0
CLASSIFICATION_TYPE = U
NORAD_CAT_ID   = 19046
ELEMENT_SET_NO = 999
REV_AT_EPOCH   = 3872
BSTAR          = .37203989E-3
MEAN_MOTION_DOT = .7727E-4
MEAN_MOTION_DDOT = 0

CCSDS_OMM_VERS = 2.0
CREATION_DATE  = 
ORIGINATOR     = 

OBJECT_NAME    = SL-16 R/B
OBJECT_ID      = 1988-039B
CENTER_NAME    = EARTH
REF_FRAME      = TEME
TIME_SYSTEM    = UTC
MEAN_ELEMENT_THEORY = SGP/SGP4

EPOCH          = 2025-12-11T04:43:22.187712
MEAN_MOTION    = 14.19596691
ECCENTRICITY   = .00197368
INCLINATION    = 71.0152
RA_OF_ASC_NODE = 255.6607
ARG_OF_PERICENTER = 118.9266
MEAN_ANOMALY   = 241.3842

EPHEMERIS_TYPE = 0
CLASSIFICATION_TYPE = U
NORAD_CAT_ID   = 19120
ELEMENT_SET_NO = 999
REV_AT_EPOCH   = 94582
BSTAR          = .20668876E-4
MEAN_MOTION_DOT = -.4E-7
MEAN_MOTION_DDOT = 0

CCSDS_OMM_VERS = 2.0
CREATION_DATE  = 
ORIGINATOR     = 

OBJECT_NAME    = COSMOS 1953
OBJECT_ID      = 1988-050A
CENTER_NAME    = EARTH
REF_FRAME      = TEME
TIME_SYSTEM    = UTC
MEAN_ELEMENT_THEORY = SGP/SGP4

EPOCH          = 2025-12-11T11:01:19.132608
MEAN_MOTION    = 15.26916908
ECCENTRICITY   = .00138003
INCLINATION    = 82.5088
RA_OF_ASC_NODE = 246.8663
ARG_OF_PERICENTER = 75.4456
MEAN_ANOMALY   = 284.8312

EPHEMERIS_TYPE = 0
CLASSIFICATION_TYPE = U
NORAD_CAT_ID   = 19210
ELEMENT_SET_NO = 999
REV_AT_EPOCH   = 2431
BSTAR          = .38190829E-3
MEAN_MOTION_DOT = .10155E-3
MEAN_MOTION_DDOT = 0

CCSDS_OMM_VERS = 2.0
CREATION_DATE  = 
ORIGINATOR     = 

OBJECT_NAME    = SL-8 R/B
OBJECT_ID      = 1988-053B
CENTER_NAME    = EARTH
REF_FRAME      = TEME
TIME_SYSTEM    = UTC
MEAN_ELEMENT_THEORY = SGP/SGP4

EPOCH          = 2025-12-11T14:07:15.794400
MEAN_MOTION    = 14.38858158
ECCENTRICITY   = .00190201
INCLINATION    = 74.0479
RA_OF_ASC_NODE = 274.8414
ARG_OF_PERICENTER = 119.4142
MEAN_ANOMALY   = 53.3832

EPHEMERIS_TYPE = 0
CLASSIFICATION_TYPE = U
NORAD_CAT_ID   = 19257
ELEMENT_SET_NO = 999
REV_AT_EPOCH   = 96392
BSTAR          = .15390229E-3
MEAN_MOTION_DOT = .448E-5
MEAN_MOTION_DDOT = 0

CCSDS_OMM_VERS = 2.0
CREATION_DATE  = 
ORIGINATOR     = 

OBJECT_NAME    = COSMOS 1975
OBJECT_ID      = 1988-093A
CENTER_NAME    = EARTH
REF_FRAME      = TEME
TIME_SYSTEM    = UTC
MEAN_ELEMENT_THEORY = SGP/SGP4

EPOCH          = 2025-12-11T08:07:45.799392
MEAN_MOTION    = 15.26439621
ECCENTRICITY   = .00127898
INCLINATION    = 82.5202
RA_OF_ASC_NODE = 206.2315
ARG_OF_PERICENTER = 116.7855
MEAN_ANOMALY   = 243.4693

EPHEMERIS_TYPE = 0
CLASSIFICATION_TYPE = U
NORAD_CAT_ID   = 19573
ELEMENT_SET_NO = 999
REV_AT_EPOCH   = 592
BSTAR          = .46439625E-3
MEAN_MOTION_DOT = .12162E-3
MEAN_MOTION_DDOT = 0

CCSDS_OMM_VERS = 2.0
CREATION_DATE  = 
ORIGINATOR     = 

OBJECT_NAME    = SL-14 R/B
OBJECT_ID      = 1988-093B
CENTER_NAME    = EARTH
REF_FRAME      = TEME
TIME_SYSTEM    = UTC
MEAN_ELEMENT_THEORY = SGP/SGP4

EPOCH          = 2025-12-11T11:54:44.599392
MEAN_MOTION    = 14.85547417
ECCENTRICITY   = .00200543
INCLINATION    = 82.5303
RA_OF_ASC_NODE = 124.8340
ARG_OF_PERICENTER = 333.7257
MEAN_ANOMALY   = 92.7992

EPHEMERIS_TYPE = 0
CLASSIFICATION_TYPE = U
NORAD_CAT_ID   = 19574
ELEMENT_SET_NO = 999
REV_AT_EPOCH   = 98794
BSTAR          = .10380328E-3
MEAN_MOTION_DOT = .924E-5
MEAN_MOTION_DDOT = 0

CCSDS_OMM_VERS = 2.0
CREATION_DATE  = 
ORIGINATOR     = 

OBJECT_NAME    = SL-16 R/B
OBJECT_ID      = 1988-102B
CENTER_NAME    = EARTH
REF_FRAME      = TEME
TIME_SYSTEM    = UTC
MEAN_ELEMENT_THEORY = SGP/SGP4

EPOCH          = 2025-12-11T09:34:25.742784
MEAN_MOTION    = 14.16136273
ECCENTRICITY   = .00130234
INCLINATION    = 70.9996
RA_OF_ASC_NODE = 337.2644
ARG_OF_PERICENTER = 154.2327
MEAN_ANOMALY   = 205.9448

EPHEMERIS_TYPE = 0
CLASSIFICATION_TYPE = U
NORAD_CAT_ID   = 19650
ELEMENT_SET_NO = 999
REV_AT_EPOCH   = 91439
BSTAR          = -.92365E-6
MEAN_MOTION_DOT = -.5E-6
MEAN_MOTION_DDOT = 0

CCSDS_OMM_VERS = 2.0
CREATION_DATE  = 
ORIGINATOR     = 

OBJECT_NAME    = INTERCOSMOS 24
OBJECT_ID      = 1989-080A
CENTER_NAME    = EARTH
REF_FRAME      = TEME
TIME_SYSTEM    = UTC
MEAN_ELEMENT_THEORY = SGP/SGP4

EPOCH          = 2025-12-11T11:21:16.739424
MEAN_MOTION    = 12.59436675
ECCENTRICITY   = .11888352
INCLINATION    = 82.6043
RA_OF_ASC_NODE = 161.7764
ARG_OF_PERICENTER = 137.4573
MEAN_ANOMALY   = 232.5117

EPHEMERIS_TYPE = 0
CLASSIFICATION_TYPE = U
NORAD_CAT_ID   = 20261
ELEMENT_SET_NO = 999
REV_AT_EPOCH   = 65569
BSTAR          = .43950671E-3
MEAN_MOTION_DOT = .1515E-4
MEAN_MOTION_DDOT = 0

CCSDS_OMM_VERS = 2.0
CREATION_DATE  = 
ORIGINATOR     = 

OBJECT_NAME    = SL-14 R/B
OBJECT_ID      = 1989-080C
CENTER_NAME    = EARTH
REF_FRAME      = TEME
TIME_SYSTEM    = UTC
MEAN_ELEMENT_THEORY = SGP/SGP4

EPOCH          = 2025-12-11T09:13:17.796864
MEAN_MOTION    = 12.50412279
ECCENTRICITY   = .12306808
INCLINATION    = 82.5930
RA_OF_ASC_NODE = 229.8909
ARG_OF_PERICENTER = 26.6852
MEAN_ANOMALY   = 339.2496

EPHEMERIS_TYPE = 0
CLASSIFICATION_TYPE = U
NORAD_CAT_ID   = 20262
ELEMENT_SET_NO = 999
REV_AT_EPOCH   = 64911
BSTAR          = .18648628E-3
MEAN_MOTION_DOT = .637E-5
MEAN_MOTION_DDOT = 0

CCSDS_OMM_VERS = 2.0
CREATION_DATE  = 
ORIGINATOR     = 

OBJECT_NAME    = DELTA 1 R/B
OBJECT_ID      = 1989-089B
CENTER_NAME    = EARTH
REF_FRAME      = TEME
TIME_SYSTEM    = UTC
MEAN_ELEMENT_THEORY = SGP/SGP4

EPOCH          = 2025-12-11T11:12:37.338912
MEAN_MOTION    = 14.50570971
ECCENTRICITY   = .00702076
INCLINATION    = 97.0752
RA_OF_ASC_NODE = 201.9064
ARG_OF_PERICENTER = 42.2593
MEAN_ANOMALY   = 318.3986

EPHEMERIS_TYPE = 0
CLASSIFICATION_TYPE = U
NORAD_CAT_ID   = 20323
ELEMENT_SET_NO = 999
REV_AT_EPOCH   = 88294
BSTAR          = .15669952E-3
MEAN_MOTION_DOT = .599E-5
MEAN_MOTION_DDOT = 0

CCSDS_OMM_VERS = 2.0
CREATION_DATE  = 
ORIGINATOR     = 

OBJECT_NAME    = ARIANE 40 R/B
OBJECT_ID      = 1990-005H
CENTER_NAME    = EARTH
REF_FRAME      = TEME
TIME_SYSTEM    = UTC
MEAN_ELEMENT_THEORY = SGP/SGP4

EPOCH          = 2025-12-11T15:03:19.881216
MEAN_MOTION    = 14.39797503
ECCENTRICITY   = .0011245
INCLINATION    = 98.3244
RA_OF_ASC_NODE = 43.8365
ARG_OF_PERICENTER = 108.8038
MEAN_ANOMALY   = 251.4371

EPHEMERIS_TYPE = 0
CLASSIFICATION_TYPE = U
NORAD_CAT_ID   = 20443
ELEMENT_SET_NO = 999
REV_AT_EPOCH   = 88013
BSTAR          = .17574344E-3
MEAN_MOTION_DOT = .509E-5
MEAN_MOTION_DDOT = 0

